[{"OBJECT_NAME":"STARLINK-3927","OBJECT_ID":"2022-051AN","EPOCH":"2026-03-09T10:26:24.619488","MEAN_MOTION":15.08837628,"ECCENTRICITY":0.00012494,"INCLINATION":53.2158,"RA_OF_ASC_NODE":120.2619,"ARG_OF_PERICENTER":93.9577,"MEAN_ANOMALY":266.1558,"EPHEMERIS_TYPE":0,"CLASSIFICATION_TYPE":"U","NORAD_CAT_ID":52569,"ELEMENT_SET_NO":999,"REV_AT_EPOCH":21154,"BSTAR":-8.24865e-7,"MEAN_MOTION_DOT":-3.01e-6,"MEAN_MOTION_DDOT":0},{"OBJECT_NAME":"CZ-6A DEB","OBJECT_ID":"2024-140FM","EPOCH":"2026-03-09T15:58:48.665856","MEAN_MOTION":15.24907574,"ECCENTRICITY":0.01008734,"INCLINATION":89.2247,"RA_OF_ASC_NODE":296.4931,"ARG_OF_PERICENTER":41.247,"MEAN_ANOMALY":319.6342,"EPHEMERIS_TYPE":0,"CLASSIFICATION_TYPE":"U","NORAD_CAT_ID":60786,"ELEMENT_SET_NO":999,"REV_AT_EPOCH":8558,"BSTAR":0.0022097808,"MEAN_MOTION_DOT":0.0006402,"MEAN_MOTION_DDOT":0}]
